LEMUR-2-SPECIAL-K       
1 48273U 21034F   23291.41937359  .00009226  00000+0  87255-3 0  9990
2 48273  97.6945 356.5431 0002127 255.1615 104.9369 14.93882332134216
LEMUR-2-JACKSON         
1 48885U 21059G   23291.18686768  .00083160  00000+0  14727-2 0  9997
2 48885  97.5964  74.1433 0004430 213.6848 146.4122 15.49981487128434
LEMUR-2-ANNABANANA      
1 48923U 21059AW  23290.95426830  .00039635  00000+0  72853-3 0  9999
2 48923  97.5918  75.4972 0005114 178.1653 181.9617 15.49108910128544
LEMUR-2-JOHN-TREIRES    
1 48925U 21059AY  23290.97132369  .00213562  00000+0  18747-2 0  9998
2 48925  97.6076  79.1327 0003675 207.9607 152.1456 15.68154960128714
LEMUR-2-AC-CUBED        
1 48927U 21059BA  23291.12570342  .00093340  00000+0  16538-2 0  9991
2 48927  97.6070  75.8296 0007539 180.7303 179.3938 15.49907489128539
LEMUR-2-MERIMA          
1 48929U 21059BC  23291.18998052  .00101811  00000+0  14750-2 0  9998
2 48929  97.5905  76.7592 0005394 180.9371 179.1874 15.55504327128640
LEMUR-2-RAMONAMAE       
1 51021U 22002AP  23291.12300734  .00069040  00000+0  16222-2 0  9995
2 51021  97.4288   1.9000 0005544 156.0088 204.1418 15.41748884 97775
LEMUR-2-KING-JULIEN     
1 51022U 22002AQ  23291.20226125  .00104118  00000+0  19398-2 0  9999
2 51022  97.4264   1.7764 0004856 161.9708 198.1715 15.48445100 97789
LEMUR-2-ROHOVITHSA      
1 51036U 22002BE  23291.09766423  .00035793  00000+0  11960-2 0  9990
2 51036  97.4259 357.8340 0006993 166.4360 193.7070 15.30906032 97503
LEMUR-2-MIRIWARI        
1 51054U 22002BY  23291.45264274  .00035725  00000+0  11496-2 0  9996
2 51054  97.4249 358.3499 0006009 164.3924 195.7504 15.32127050 97572
LEMUR-2-DJIRANG         
1 51058U 22002CC  23291.45357173  .00038074  00000+0  12254-2 0  9994
2 51058  97.4224 358.1640 0005846 162.7534 197.3907 15.32108155 97572
LEMUR-2-TENNYSONLILY    
1 52732U 22057A   23291.24064430  .00078103  00000+0  18245-2 0  9995
2 52732  97.5621  52.0554 0006013 281.7661  78.2911 15.41881958 77623
LEMUR-2-VANDENDRIES     
1 52733U 22057B   23291.24872681  .00046279  00000+0  14950-2 0  9999
2 52733  97.5428  48.9762 0005596 287.8552  72.2078 15.31944789 77488
LEMUR-2-KAREN B         
1 52736U 22057E   23291.07021737  .00112772  00000+0  23384-2 0  9994
2 52736  97.5470  51.6780 0005384 278.4845  81.5793 15.45291995 77649
LEMUR-2-HANCOM-1        
1 52740U 22057J   23291.09473055  .00041001  00000+0  13445-2 0  9998
2 52740  97.5640  50.2732 0006707 283.7769  76.2725 15.31485453 77475
LEMUR-2-MIMI1307        
1 52769U 22057AP  23290.59350954  .00024155  00000+0  78634-3 0  9998
2 52769  97.5631  49.9326 0008661 260.0868  99.9396 15.31820663 77415
LEMUR-2-PHILARI         
1 55013U 23001E   23291.12047863  .00041895  00000+0  16019-2 0  9993
2 55013  97.4600 350.0744 0006369 304.9397  55.1243 15.26452174 43783
LEMUR-2-DISCLAIMER      
1 55014U 23001F   23291.42846904  .00033080  00000+0  12995-2 0  9996
2 55014  97.4649 350.4328 0007493 310.4072  49.6511 15.25599488 43820
LEMUR-2-STEVEALBERS     
1 55017U 23001J   23290.89438634  .00032717  00000+0  13108-2 0  9999
2 55017  97.4589 349.5574 0006844 307.6043  52.4572 15.24945913 43739
LEMUR-2-EMMACULATE      
1 55037U 23001AE  23291.43752626  .00042655  00000+0  14746-2 0  9993
2 55037  97.4654 351.5435 0010383 288.0912  71.9197 15.29733675 43894
LEMUR-2-MMOLO           
1 55038U 23001AF  23291.54646693  .00011430  00000+0  43659-3 0  9995
2 55038  97.4675 351.7654 0011851 293.0722  66.9267 15.26729504 43917
LEMUR-2-FUENTETAJA-01   
1 55088U 23001CH  23291.13465624  .00040748  00000+0  15532-2 0  9990
2 55088  97.4679 350.8291 0010696 288.8364  71.1714 15.26528616 43818
LEMUR-2-ONREFLECTION    
1 56182U 23054E   23291.45056983  .00030959  00000+0  11423-2 0  9991
2 56182  97.3793 184.7276 0006665 336.6839  23.4097 15.27699491 28961
LEMUR-2-SPACEGUS        
1 56187U 23054K   23291.19312187  .00021096  00000+0  76743-3 0  9997
2 56187  97.3802 184.6275 0005625 323.7510  36.3347 15.28251750 28934
LEMUR-2-ROMEO-N-LEO     
1 56206U 23054AE  23291.45210949  .00066768  00000+0  18254-2 0  9998
2 56206  97.3754 185.9004 0005400 301.1883  58.8832 15.37120422 29042
LEMUR-2-EMBRIONOVIS     
1 56970U 23084AQ  23291.20679232  .00007513  00000+0  40306-3 0  9993
2 56970  97.5298  46.3336 0016540 132.3570 227.9066 15.15128547 19271
LEMUR-2-NAZIYAH         
1 56974U 23084AU  23291.24183254  .00027596  00000+0  13666-2 0  9996
2 56974  97.5181  46.4280 0014733 124.4898 235.7729 15.17647266 19293
LEMUR-2-AADAM-ALIYAH    
1 56977U 23084AX  23291.24050040  .00013204  00000+0  65653-3 0  9990
2 56977  97.5215  46.4665 0015071 125.5520 234.7121 15.17663172 19290
LEMUR-2-MANO            
1 57390U 23100E   23290.95642646  .00011143  00000+0  90482-3 0  9993
2 57390  99.4771  75.8450 0016968 357.9658   2.1487 14.99750796 13761
LEMUR-2-DEVERILL-M-T    
1 57391U 23100F   23291.19715354  .00008571  00000+0  69274-3 0  9994
2 57391  99.4703  76.2362 0011822 354.1059   6.0018 15.00087308 13805
